CELESTIS-17 & SHERPA-FX1
1 47486U 21006CB  26068.64311433  .00007207  00000+0  24301-3 0  9993
2 47486  97.2397 112.1052 0006630 178.1385 181.9882 15.30994801284065
STARLINK-32897          
1 62967U 25029V   26068.71808384  .00016355  00000+0  56298-3 0  9991
2 62967  53.1597 232.2028 0001685  20.4546 339.6522 15.30207132 61328
